{"type":"FeatureCollection","features":[{"type":"Feature","id":4,"geometry":{"type":"Point","coordinates":[-122.63303422534955,45.57234566735292]},"properties":{"OBJECTID":4,"TREEID":356,"STATUS":"Heritage","HEIGHT":86,"SPREAD":42,"DIAMETER":46,"NOTES":null,"SCIENTIFIC":"Metasequoia glyptostroboides","COMMON":"Dawn redwood","STATE_ID":"1N1E13BD  3500","SITE_ADDRESS":"6805 NE 32nd Ave.","Date_Height":1529020800000,"Date_Spread":1529020800000,"CIRCUMF":15.1,"Date_Circumference":1529020800000,"YEAR_Designated":2019,"DATE_DESIG":1553644800000,"Ownership":"Private","LAT":45.57234,"LON":-122.63302,"Delist_Date":null,"Delist_Ordinance":null,"Delist_Reason":null,"Neighborhood":"CONCORDIA","Vol_Inspection":null,"Native":null,"Site_Notes":null,"Ordinance":"189439","County_Rec":null,"Plaque_adjustment_date":null,"Plaque_notes":null,"Tree_fact_short":null,"Tree_fact_long":null,"Species_fact_short":null,"Species_fact_long":null,"Owner_name":null,"Owner_address":null,"GlobalID":"{68BC7C0F-D447-4FAB-AD35-A1B5C77E4985}","created_user":null,"created_date":null,"last_edited_user":null,"last_edited_date":null}},{"type":"Feature","id":18,"geometry":{"type":"Point","coordinates":[-122.6340642507223,45.529356934670155]},"properties":{"OBJECTID":18,"TREEID":null,"STATUS":"Merit","HEIGHT":null,"SPREAD":null,"DIAMETER":null,"NOTES":"4 trees planted in the right-of-way in the 1950s","SCIENTIFIC":"Sequoiadendron giganteum","COMMON":"Giant sequoia","STATE_ID":"1N1E36BD  12800","SITE_ADDRESS":"3010 NE HOLLADAY ST","Date_Height":null,"Date_Spread":null,"CIRCUMF":null,"Date_Circumference":null,"YEAR_Designated":2015,"DATE_DESIG":1450396800000,"Ownership":"Right Of Way","LAT":45.52935127,"LON":-122.63405003,"Delist_Date":null,"Delist_Ordinance":null,"Delist_Reason":null,"Neighborhood":"KERNS","Vol_Inspection":null,"Native":null,"Site_Notes":null,"Ordinance":null,"County_Rec":null,"Plaque_adjustment_date":null,"Plaque_notes":null,"Tree_fact_short":null,"Tree_fact_long":null,"Species_fact_short":null,"Species_fact_long":null,"Owner_name":null,"Owner_address":null,"GlobalID":"{4011E59F-F83E-4106-B699-C62A0CA36E86}","created_user":null,"created_date":null,"last_edited_user":null,"last_edited_date":null}},{"type":"Feature","id":53,"geometry":{"type":"Point","coordinates":[-122.60377088092724,45.51469403364488]},"properties":{"OBJECTID":53,"TREEID":307,"STATUS":"Heritage","HEIGHT":120,"SPREAD":43,"DIAMETER":88,"NOTES":null,"SCIENTIFIC":"Sequoiadendron giganteum","COMMON":"Giant sequoia","STATE_ID":"1S2E06AD  3200","SITE_ADDRESS":"5810 SE Taylor St.","Date_Height":null,"Date_Spread":null,"CIRCUMF":23.1,"Date_Circumference":null,"YEAR_Designated":2011,"DATE_DESIG":1317600000000,"Ownership":"Private, Front Yard","LAT":45.51468837,"LON":-122.60375667,"Delist_Date":null,"Delist_Ordinance":null,"Delist_Reason":null,"Neighborhood":"MT. TABOR","Vol_Inspection":null,"Native":null,"Site_Notes":null,"Ordinance":null,"County_Rec":null,"Plaque_adjustment_date":null,"Plaque_notes":null,"Tree_fact_short":null,"Tree_fact_long":null,"Species_fact_short":null,"Species_fact_long":null,"Owner_name":null,"Owner_address":null,"GlobalID":"{254BB4AA-A9B0-43A5-920C-43FB7F650AA0}","created_user":null,"created_date":null,"last_edited_user":null,"last_edited_date":null}},{"type":"Feature","id":77,"geometry":{"type":"Point","coordinates":[-122.70002089360379,45.57656639708383]},"properties":{"OBJECTID":77,"TREEID":276,"STATUS":"Heritage","HEIGHT":128,"SPREAD":62,"DIAMETER":132,"NOTES":"This tree is partially visible from the street.","SCIENTIFIC":"Sequoiadendron giganteum","COMMON":"Giant sequoia","STATE_ID":"1N1E16BB  2800","SITE_ADDRESS":"7404 N OATMAN AVE","Date_Height":1456790400000,"Date_Spread":1456790400000,"CIRCUMF":34.5,"Date_Circumference":1456790400000,"YEAR_Designated":2005,"DATE_DESIG":null,"Ownership":"Private, Rear Yard","LAT":45.57656074,"LON":-122.70000666,"Delist_Date":null,"Delist_Ordinance":null,"Delist_Reason":null,"Neighborhood":"ARBOR LODGE","Vol_Inspection":null,"Native":null,"Site_Notes":null,"Ordinance":null,"County_Rec":null,"Plaque_adjustment_date":null,"Plaque_notes":null,"Tree_fact_short":null,"Tree_fact_long":null,"Species_fact_short":null,"Species_fact_long":null,"Owner_name":null,"Owner_address":null,"GlobalID":"{36627A71-43BF-43CF-A1E6-53BBA09BFED6}","created_user":null,"created_date":null,"last_edited_user":null,"last_edited_date":null}},{"type":"Feature","id":93,"geometry":{"type":"Point","coordinates":[-122.70096153391081,45.50739163847839]},"properties":{"OBJECTID":93,"TREEID":246,"STATUS":"Heritage","HEIGHT":55,"SPREAD":29,"DIAMETER":35,"NOTES":"This tree is visible from Ravenswood Dr.","SCIENTIFIC":"Metasequoia glyptostroboides","COMMON":"Dawn redwood","STATE_ID":"1S1E04CC  2600","SITE_ADDRESS":"2562 SW HILLCREST DR","Date_Height":null,"Date_Spread":null,"CIRCUMF":9.2,"Date_Circumference":null,"YEAR_Designated":2003,"DATE_DESIG":null,"Ownership":"Private, Rear Yard","LAT":45.50738598,"LON":-122.70094731,"Delist_Date":null,"Delist_Ordinance":null,"Delist_Reason":null,"Neighborhood":"SOUTHWEST HILLS","Vol_Inspection":null,"Native":null,"Site_Notes":null,"Ordinance":null,"County_Rec":null,"Plaque_adjustment_date":null,"Plaque_notes":null,"Tree_fact_short":null,"Tree_fact_long":null,"Species_fact_short":null,"Species_fact_long":null,"Owner_name":null,"Owner_address":null,"GlobalID":"{A590448D-3EE0-459E-947E-41C5F83A9E28}","created_user":null,"created_date":null,"last_edited_user":null,"last_edited_date":null}},{"type":"Feature","id":125,"geometry":{"type":"Point","coordinates":[-122.6298929775994,45.495083371686164]},"properties":{"OBJECTID":125,"TREEID":167,"STATUS":"Heritage","HEIGHT":70,"SPREAD":49,"DIAMETER":56,"NOTES":"This tree is most visible from SE 33rd Pl.","SCIENTIFIC":"Sequoia sempervirens","COMMON":"Coast redwood","STATE_ID":"1S1E12DB  3600","SITE_ADDRESS":"3381 SE FRANCIS ST","Date_Height":null,"Date_Spread":null,"CIRCUMF":14.6,"Date_Circumference":null,"YEAR_Designated":1997,"DATE_DESIG":878169600000,"Ownership":"Private, Rear Yard","LAT":45.49507771,"LON":-122.62987877,"Delist_Date":null,"Delist_Ordinance":null,"Delist_Reason":null,"Neighborhood":"CRESTON-KENILWORTH","Vol_Inspection":null,"Native":null,"Site_Notes":null,"Ordinance":null,"County_Rec":null,"Plaque_adjustment_date":null,"Plaque_notes":null,"Tree_fact_short":null,"Tree_fact_long":null,"Species_fact_short":null,"Species_fact_long":null,"Owner_name":null,"Owner_address":null,"GlobalID":"{954476A7-4A9F-4FB7-ADC9-181FACC11485}","created_user":null,"created_date":null,"last_edited_user":null,"last_edited_date":null}},{"type":"Feature","id":129,"geometry":{"type":"Point","coordinates":[-122.6995596859605,45.52280244861606]},"properties":{"OBJECTID":129,"TREEID":null,"STATUS":"Merit","HEIGHT":null,"SPREAD":null,"DIAMETER":null,"NOTES":null,"SCIENTIFIC":"Sequoiadendron giganteum","COMMON":"Giant sequoia","STATE_ID":"1N1E33CC  66000","SITE_ADDRESS":"2336 SW OSAGE ST","Date_Height":null,"Date_Spread":null,"CIRCUMF":null,"Date_Circumference":null,"YEAR_Designated":null,"DATE_DESIG":null,"Ownership":null,"LAT":45.52279679,"LON":-122.69954546,"Delist_Date":null,"Delist_Ordinance":null,"Delist_Reason":null,"Neighborhood":"GOOSE HOLLOW","Vol_Inspection":null,"Native":null,"Site_Notes":null,"Ordinance":null,"County_Rec":null,"Plaque_adjustment_date":null,"Plaque_notes":null,"Tree_fact_short":null,"Tree_fact_long":null,"Species_fact_short":null,"Species_fact_long":null,"Owner_name":null,"Owner_address":null,"GlobalID":"{DBB3E0D9-B3BB-480D-BBD9-8B620A056A01}","created_user":null,"created_date":null,"last_edited_user":null,"last_edited_date":null}},{"type":"Feature","id":133,"geometry":{"type":"Point","coordinates":[-122.69981712874788,45.52239142826898]},"properties":{"OBJECTID":133,"TREEID":null,"STATUS":"Merit","HEIGHT":null,"SPREAD":null,"DIAMETER":null,"NOTES":null,"SCIENTIFIC":"Sequoiadendron giganteum","COMMON":"Giant sequoia","STATE_ID":"1N1E33CC  2200","SITE_ADDRESS":"2331 SW CACTUS DR","Date_Height":null,"Date_Spread":null,"CIRCUMF":null,"Date_Circumference":null,"YEAR_Designated":null,"DATE_DESIG":null,"Ownership":null,"LAT":45.52238577,"LON":-122.6998029,"Delist_Date":null,"Delist_Ordinance":null,"Delist_Reason":null,"Neighborhood":"GOOSE HOLLOW","Vol_Inspection":null,"Native":null,"Site_Notes":null,"Ordinance":null,"County_Rec":null,"Plaque_adjustment_date":null,"Plaque_notes":null,"Tree_fact_short":null,"Tree_fact_long":null,"Species_fact_short":null,"Species_fact_long":null,"Owner_name":null,"Owner_address":null,"GlobalID":"{16C5D408-E064-488A-A7DA-0F50C9D485FA}","created_user":null,"created_date":null,"last_edited_user":null,"last_edited_date":null}},{"type":"Feature","id":138,"geometry":{"type":"Point","coordinates":[-122.68132432856228,45.4559338621528]},"properties":{"OBJECTID":138,"TREEID":null,"STATUS":"Merit","HEIGHT":null,"SPREAD":null,"DIAMETER":null,"NOTES":null,"SCIENTIFIC":"Sequoia sempervirens","COMMON":"Coast redwood","STATE_ID":"1S1E27BC  5900","SITE_ADDRESS":"9519 SW 2ND AVE","Date_Height":null,"Date_Spread":null,"CIRCUMF":null,"Date_Circumference":null,"YEAR_Designated":2015,"DATE_DESIG":1450396800000,"Ownership":"Private, Rear Yard","LAT":45.45592821,"LON":-122.68131012,"Delist_Date":null,"Delist_Ordinance":null,"Delist_Reason":null,"Neighborhood":"COLLINS VIEW","Vol_Inspection":null,"Native":null,"Site_Notes":null,"Ordinance":null,"County_Rec":null,"Plaque_adjustment_date":null,"Plaque_notes":null,"Tree_fact_short":null,"Tree_fact_long":null,"Species_fact_short":null,"Species_fact_long":null,"Owner_name":null,"Owner_address":null,"GlobalID":"{67628188-321F-4B09-9E69-6B2233A7200D}","created_user":null,"created_date":null,"last_edited_user":null,"last_edited_date":null}},{"type":"Feature","id":148,"geometry":{"type":"Point","coordinates":[-122.70764498974319,45.503590966926424]},"properties":{"OBJECTID":148,"TREEID":125,"STATUS":"Heritage","HEIGHT":148,"SPREAD":62,"DIAMETER":null,"NOTES":"This tree is at the entrance to the residence driveway.","SCIENTIFIC":"Sequoiadendron giganteum","COMMON":"Giant sequoia","STATE_ID":"1S1E08AA  15300","SITE_ADDRESS":"2896 SW PATTON RD","Date_Height":1536710400000,"Date_Spread":1536710400000,"CIRCUMF":23.2,"Date_Circumference":1536710400000,"YEAR_Designated":1997,"DATE_DESIG":854496000000,"Ownership":"Right Of Way","LAT":45.50358531,"LON":-122.70763077,"Delist_Date":null,"Delist_Ordinance":null,"Delist_Reason":null,"Neighborhood":"SOUTHWEST HILLS","Vol_Inspection":null,"Native":null,"Site_Notes":null,"Ordinance":null,"County_Rec":null,"Plaque_adjustment_date":1536710400000,"Plaque_notes":null,"Tree_fact_short":null,"Tree_fact_long":null,"Species_fact_short":null,"Species_fact_long":null,"Owner_name":null,"Owner_address":null,"GlobalID":"{665D083A-3C51-471F-B452-4B4214EC7C27}","created_user":null,"created_date":null,"last_edited_user":null,"last_edited_date":null}},{"type":"Feature","id":154,"geometry":{"type":"Point","coordinates":[-122.64648862753309,45.502847216149405]},"properties":{"OBJECTID":154,"TREEID":null,"STATUS":"Merit","HEIGHT":null,"SPREAD":null,"DIAMETER":null,"NOTES":"3 trees planted in the 1940s","SCIENTIFIC":"Sequoiadendron giganteum","COMMON":"Giant sequoia","STATE_ID":"1S1E11AB  11900","SITE_ADDRESS":"2736-2738 SE 19TH AVE","Date_Height":null,"Date_Spread":null,"CIRCUMF":null,"Date_Circumference":null,"YEAR_Designated":null,"DATE_DESIG":null,"Ownership":null,"LAT":45.50284155,"LON":-122.64647441,"Delist_Date":null,"Delist_Ordinance":null,"Delist_Reason":null,"Neighborhood":"HOSFORD-ABERNETHY","Vol_Inspection":null,"Native":null,"Site_Notes":null,"Ordinance":null,"County_Rec":null,"Plaque_adjustment_date":null,"Plaque_notes":null,"Tree_fact_short":null,"Tree_fact_long":null,"Species_fact_short":null,"Species_fact_long":null,"Owner_name":null,"Owner_address":null,"GlobalID":"{4BFDCFAF-C2EE-4607-ADA3-4B28EBACB962}","created_user":null,"created_date":null,"last_edited_user":null,"last_edited_date":null}},{"type":"Feature","id":163,"geometry":{"type":"Point","coordinates":[-122.71677010784032,45.51921503170371]},"properties":{"OBJECTID":163,"TREEID":313,"STATUS":"Heritage","HEIGHT":103,"SPREAD":33,"DIAMETER":41,"NOTES":"This tree is an Oregon Heritage Tree.  It was the first Dawn Redwood to bear cones in the Western hemisphere in 8 million years.","SCIENTIFIC":"Metasequoia glyptostroboides","COMMON":"Dawn redwood","STATE_ID":"1S1E05    1000","SITE_ADDRESS":"SW Bary Ln. in Hoyt Arboretum","Date_Height":1568220602000,"Date_Spread":1568220608000,"CIRCUMF":10.8,"Date_Circumference":1568220718000,"YEAR_Designated":2013,"DATE_DESIG":1362009600000,"Ownership":"Portland Parks & Recreation (Hoyt Arboretum)","LAT":45.51920938,"LON":-122.71675588,"Delist_Date":null,"Delist_Ordinance":null,"Delist_Reason":null,"Neighborhood":"ARLINGTON HEIGHTS","Vol_Inspection":null,"Native":null,"Site_Notes":null,"Ordinance":null,"County_Rec":null,"Plaque_adjustment_date":1568239761000,"Plaque_notes":"Good condition ","Tree_fact_short":null,"Tree_fact_long":null,"Species_fact_short":null,"Species_fact_long":null,"Owner_name":null,"Owner_address":null,"GlobalID":"{7D56DEE7-1C90-4C8D-83B8-860CAFB7F305}","created_user":null,"created_date":null,"last_edited_user":null,"last_edited_date":null}},{"type":"Feature","id":178,"geometry":{"type":"Point","coordinates":[-122.64636040111111,45.50279274012257]},"properties":{"OBJECTID":178,"TREEID":null,"STATUS":"Merit","HEIGHT":null,"SPREAD":null,"DIAMETER":null,"NOTES":"3 trees planted in the 1940s","SCIENTIFIC":"Sequoiadendron giganteum","COMMON":"Giant sequoia","STATE_ID":"1S1E11AB  11900","SITE_ADDRESS":"2736-2738 SE 19TH AVE","Date_Height":null,"Date_Spread":null,"CIRCUMF":null,"Date_Circumference":null,"YEAR_Designated":null,"DATE_DESIG":null,"Ownership":null,"LAT":45.50278708,"LON":-122.64634619,"Delist_Date":null,"Delist_Ordinance":null,"Delist_Reason":null,"Neighborhood":"HOSFORD-ABERNETHY","Vol_Inspection":null,"Native":null,"Site_Notes":null,"Ordinance":null,"County_Rec":null,"Plaque_adjustment_date":null,"Plaque_notes":null,"Tree_fact_short":null,"Tree_fact_long":null,"Species_fact_short":null,"Species_fact_long":null,"Owner_name":null,"Owner_address":null,"GlobalID":"{2D7F37CC-2A0C-4F70-A47B-C92097DE842F}","created_user":null,"created_date":null,"last_edited_user":null,"last_edited_date":null}},{"type":"Feature","id":189,"geometry":{"type":"Point","coordinates":[-122.7378136113931,45.58349095349616]},"properties":{"OBJECTID":189,"TREEID":329,"STATUS":"Heritage","HEIGHT":106,"SPREAD":57,"DIAMETER":69,"NOTES":"Peninsula Crossing Trail, at N Carey, between N. Princeton St and N. Syracuse St (right-of-way)","SCIENTIFIC":"Sequoia sempervirens","COMMON":"Coast redwood","STATE_ID":"1N1E07CA  4600","SITE_ADDRESS":"N Carey & N Princeton","Date_Height":1567804888000,"Date_Spread":1567804874000,"CIRCUMF":18.6,"Date_Circumference":1567804880000,"YEAR_Designated":2016,"DATE_DESIG":1464739200000,"Ownership":"Right Of Way","LAT":45.5834853,"LON":-122.73779937,"Delist_Date":null,"Delist_Ordinance":null,"Delist_Reason":null,"Neighborhood":"UNIVERSITY PARK","Vol_Inspection":null,"Native":null,"Site_Notes":null,"Ordinance":null,"County_Rec":null,"Plaque_adjustment_date":1567808044000,"Plaque_notes":"Good condition ","Tree_fact_short":null,"Tree_fact_long":null,"Species_fact_short":null,"Species_fact_long":null,"Owner_name":null,"Owner_address":null,"GlobalID":"{18142089-ACCF-4801-B34D-2A84F4DA709F}","created_user":null,"created_date":null,"last_edited_user":null,"last_edited_date":null}},{"type":"Feature","id":201,"geometry":{"type":"Point","coordinates":[-122.64652761172147,45.50295852591362]},"properties":{"OBJECTID":201,"TREEID":null,"STATUS":"Merit","HEIGHT":null,"SPREAD":null,"DIAMETER":null,"NOTES":"3 trees planted in the 1940s","SCIENTIFIC":"Sequoiadendron giganteum","COMMON":"Giant sequoia","STATE_ID":"1S1E11AB  11900","SITE_ADDRESS":"2736-2738 SE 19TH AVE","Date_Height":null,"Date_Spread":null,"CIRCUMF":null,"Date_Circumference":null,"YEAR_Designated":null,"DATE_DESIG":null,"Ownership":null,"LAT":45.50295286,"LON":-122.6465134,"Delist_Date":null,"Delist_Ordinance":null,"Delist_Reason":null,"Neighborhood":"HOSFORD-ABERNETHY","Vol_Inspection":null,"Native":null,"Site_Notes":null,"Ordinance":null,"County_Rec":null,"Plaque_adjustment_date":null,"Plaque_notes":null,"Tree_fact_short":null,"Tree_fact_long":null,"Species_fact_short":null,"Species_fact_long":null,"Owner_name":null,"Owner_address":null,"GlobalID":"{45B3C2B2-7C74-4863-B6DD-003A7CDC3B27}","created_user":null,"created_date":null,"last_edited_user":null,"last_edited_date":null}},{"type":"Feature","id":216,"geometry":{"type":"Point","coordinates":[-122.70316983542432,45.577471673685594]},"properties":{"OBJECTID":216,"TREEID":254,"STATUS":"Heritage","HEIGHT":87,"SPREAD":20,"DIAMETER":42,"NOTES":"This tree is partially visible N Lombard St and N Wabash Ave. It was planted from seed in 1948 by Ruth Hansen, a founder of the American Rhododendron Society, the Crystal Springs Rhododendron Garden, and the Oregon Native Plant Society.","SCIENTIFIC":"Metasequoia glyptostroboides","COMMON":"Dawn redwood","STATE_ID":"1N1E08DD  9200","SITE_ADDRESS":"3515 N/ N LOMBARD ST","Date_Height":1539723894000,"Date_Spread":1456790400000,"CIRCUMF":11.1,"Date_Circumference":1456790400000,"YEAR_Designated":2003,"DATE_DESIG":null,"Ownership":"Private, Rear Yard","LAT":45.57746601,"LON":-122.7031556,"Delist_Date":null,"Delist_Ordinance":null,"Delist_Reason":null,"Neighborhood":"KENTON","Vol_Inspection":null,"Native":null,"Site_Notes":null,"Ordinance":null,"County_Rec":null,"Plaque_adjustment_date":null,"Plaque_notes":null,"Tree_fact_short":null,"Tree_fact_long":null,"Species_fact_short":null,"Species_fact_long":null,"Owner_name":null,"Owner_address":null,"GlobalID":"{F9631B88-39FA-4E81-B398-1EA08D946FCC}","created_user":null,"created_date":null,"last_edited_user":null,"last_edited_date":null}},{"type":"Feature","id":260,"geometry":{"type":"Point","coordinates":[-122.59865153483662,45.511114428208174]},"properties":{"OBJECTID":260,"TREEID":152,"STATUS":"Heritage","HEIGHT":139,"SPREAD":56,"DIAMETER":98,"NOTES":"This tree is on the east side of the rectangular reservoir, on the west side of Mt. Tabor Park.","SCIENTIFIC":"Sequoiadendron giganteum","COMMON":"Giant sequoia","STATE_ID":"1S2E05    100","SITE_ADDRESS":"6325 SE DIVISION ST","Date_Height":1533859200000,"Date_Spread":1533859200000,"CIRCUMF":25.68,"Date_Circumference":1533859200000,"YEAR_Designated":1997,"DATE_DESIG":870220800000,"Ownership":"Portland Parks & Recreation, Mt Tabor","LAT":45.51110876,"LON":-122.59863733,"Delist_Date":null,"Delist_Ordinance":null,"Delist_Reason":null,"Neighborhood":"MT. TABOR","Vol_Inspection":null,"Native":null,"Site_Notes":null,"Ordinance":null,"County_Rec":null,"Plaque_adjustment_date":1533859200000,"Plaque_notes":null,"Tree_fact_short":null,"Tree_fact_long":null,"Species_fact_short":null,"Species_fact_long":null,"Owner_name":null,"Owner_address":null,"GlobalID":"{77967A7E-D761-4BD0-BEB4-C2C7ED542DD0}","created_user":null,"created_date":null,"last_edited_user":null,"last_edited_date":null}},{"type":"Feature","id":274,"geometry":{"type":"Point","coordinates":[-122.69807569516227,45.51092431615873]},"properties":{"OBJECTID":274,"TREEID":221,"STATUS":"Heritage","HEIGHT":103,"SPREAD":46,"DIAMETER":84,"NOTES":"largest to date  23' 3''","SCIENTIFIC":"Sequoiadendron giganteum","COMMON":"Giant sequoia","STATE_ID":"1S1E04CB  2500","SITE_ADDRESS":"2234-2238 SW VISTA AVE","Date_Height":null,"Date_Spread":null,"CIRCUMF":22,"Date_Circumference":null,"YEAR_Designated":1999,"DATE_DESIG":940464000000,"Ownership":"Private, Front Yard (adj to street)","LAT":45.51091866,"LON":-122.69806147,"Delist_Date":null,"Delist_Ordinance":null,"Delist_Reason":null,"Neighborhood":"SOUTHWEST HILLS","Vol_Inspection":null,"Native":null,"Site_Notes":null,"Ordinance":null,"County_Rec":null,"Plaque_adjustment_date":null,"Plaque_notes":null,"Tree_fact_short":null,"Tree_fact_long":null,"Species_fact_short":null,"Species_fact_long":null,"Owner_name":null,"Owner_address":null,"GlobalID":"{76757418-E451-4707-8C1C-987B37752795}","created_user":null,"created_date":null,"last_edited_user":null,"last_edited_date":null}},{"type":"Feature","id":280,"geometry":{"type":"Point","coordinates":[-122.64926628486688,45.54068243224736]},"properties":{"OBJECTID":280,"TREEID":253,"STATUS":"Heritage","HEIGHT":75,"SPREAD":33,"DIAMETER":34,"NOTES":"","SCIENTIFIC":"Metasequoia glyptostroboides","COMMON":"Dawn redwood","STATE_ID":"1N1E26DB  1000","SITE_ADDRESS":"1617 NE BRAZEE ST","Date_Height":null,"Date_Spread":null,"CIRCUMF":8.9,"Date_Circumference":null,"YEAR_Designated":2003,"DATE_DESIG":null,"Ownership":"Private, Front Yard","LAT":45.54067677,"LON":-122.64925206,"Delist_Date":null,"Delist_Ordinance":null,"Delist_Reason":null,"Neighborhood":"IRVINGTON","Vol_Inspection":null,"Native":null,"Site_Notes":null,"Ordinance":null,"County_Rec":null,"Plaque_adjustment_date":null,"Plaque_notes":null,"Tree_fact_short":null,"Tree_fact_long":null,"Species_fact_short":null,"Species_fact_long":null,"Owner_name":null,"Owner_address":null,"GlobalID":"{76657EE8-BA3E-4F0A-BAE2-4BAD3E1D1E24}","created_user":null,"created_date":null,"last_edited_user":null,"last_edited_date":null}},{"type":"Feature","id":304,"geometry":{"type":"Point","coordinates":[-122.70059919664433,45.52181673138049]},"properties":{"OBJECTID":304,"TREEID":158,"STATUS":"Heritage","HEIGHT":95,"SPREAD":52,"DIAMETER":84,"NOTES":"This tree is not very visible from the street.","SCIENTIFIC":"Sequoiadendron giganteum","COMMON":"Giant sequoia","STATE_ID":"1N1E33CC6 40004","SITE_ADDRESS":"2393 SW PARK PL","Date_Height":null,"Date_Spread":null,"CIRCUMF":22.1,"Date_Circumference":null,"YEAR_Designated":1997,"DATE_DESIG":878169600000,"Ownership":"Private, Rear Yard","LAT":45.52181107,"LON":-122.70058497,"Delist_Date":null,"Delist_Ordinance":null,"Delist_Reason":null,"Neighborhood":"GOOSE HOLLOW","Vol_Inspection":null,"Native":null,"Site_Notes":null,"Ordinance":null,"County_Rec":null,"Plaque_adjustment_date":null,"Plaque_notes":null,"Tree_fact_short":null,"Tree_fact_long":null,"Species_fact_short":null,"Species_fact_long":null,"Owner_name":null,"Owner_address":null,"GlobalID":"{C93046C0-92E1-4E32-BA01-490539FEA656}","created_user":null,"created_date":null,"last_edited_user":"sawolf","last_edited_date":1727122854000}},{"type":"Feature","id":315,"geometry":{"type":"Point","coordinates":[-122.60662956450305,45.51227487788054]},"properties":{"OBJECTID":315,"TREEID":165,"STATUS":"Heritage","HEIGHT":175,"SPREAD":60,"DIAMETER":89,"NOTES":"This tree can be found along SE 55th Ave at this address.","SCIENTIFIC":"Sequoiadendron giganteum","COMMON":"Giant sequoia","STATE_ID":"1S2E06AC  16300","SITE_ADDRESS":"5511 SE HAWTHORNE BLVD","Date_Height":null,"Date_Spread":null,"CIRCUMF":23.25,"Date_Circumference":null,"YEAR_Designated":1997,"DATE_DESIG":878169600000,"Ownership":"Private, Side Yard","LAT":45.51226921,"LON":-122.60661536,"Delist_Date":null,"Delist_Ordinance":null,"Delist_Reason":null,"Neighborhood":"MT. TABOR","Vol_Inspection":null,"Native":null,"Site_Notes":null,"Ordinance":null,"County_Rec":null,"Plaque_adjustment_date":null,"Plaque_notes":null,"Tree_fact_short":null,"Tree_fact_long":null,"Species_fact_short":null,"Species_fact_long":null,"Owner_name":null,"Owner_address":null,"GlobalID":"{E3166423-2468-42F4-B0BC-2D91FB67C371}","created_user":null,"created_date":null,"last_edited_user":null,"last_edited_date":null}},{"type":"Feature","id":344,"geometry":{"type":"Point","coordinates":[-122.72408792697689,45.46825613121968]},"properties":{"OBJECTID":344,"TREEID":325,"STATUS":"Heritage","HEIGHT":72,"SPREAD":41,"DIAMETER":35,"NOTES":"privately owned tree","SCIENTIFIC":"Metasequoia glyptostroboides","COMMON":"Dawn redwood","STATE_ID":"1S1E19DA  1000","SITE_ADDRESS":"4600 SW MAPLEWOOD RD","Date_Height":1533859200000,"Date_Spread":1533859200000,"CIRCUMF":9.2,"Date_Circumference":1533859200000,"YEAR_Designated":2016,"DATE_DESIG":1464739200000,"Ownership":"Private, Rear Yard","LAT":45.46825048,"LON":-122.72407371,"Delist_Date":null,"Delist_Ordinance":null,"Delist_Reason":null,"Neighborhood":"MAPLEWOOD","Vol_Inspection":null,"Native":null,"Site_Notes":null,"Ordinance":null,"County_Rec":null,"Plaque_adjustment_date":1533859200000,"Plaque_notes":null,"Tree_fact_short":null,"Tree_fact_long":null,"Species_fact_short":null,"Species_fact_long":null,"Owner_name":null,"Owner_address":null,"GlobalID":"{48D025BC-CAB4-4F23-BBCA-243F8D0C17D4}","created_user":null,"created_date":null,"last_edited_user":null,"last_edited_date":null}},{"type":"Feature","id":345,"geometry":{"type":"Point","coordinates":[-122.71397250700886,45.53546570688598]},"properties":{"OBJECTID":345,"TREEID":386,"STATUS":"Heritage","HEIGHT":142,"SPREAD":48,"DIAMETER":100,"NOTES":null,"SCIENTIFIC":"Sequoiadendron giganteum","COMMON":"giant sequoia","STATE_ID":null,"SITE_ADDRESS":"3114 NW Thurman St","Date_Height":1653436800000,"Date_Spread":1653436800000,"CIRCUMF":26.2,"Date_Circumference":1653436800000,"YEAR_Designated":2020,"DATE_DESIG":1653436800000,"Ownership":"Private","LAT":null,"LON":null,"Delist_Date":null,"Delist_Ordinance":null,"Delist_Reason":null,"Neighborhood":"NORTHWEST DISTRICT","Vol_Inspection":null,"Native":null,"Site_Notes":null,"Ordinance":null,"County_Rec":null,"Plaque_adjustment_date":null,"Plaque_notes":null,"Tree_fact_short":null,"Tree_fact_long":null,"Species_fact_short":null,"Species_fact_long":null,"Owner_name":null,"Owner_address":null,"GlobalID":"{A3E6FDFC-B565-4813-9664-52F0DDEC5432}","created_user":null,"created_date":null,"last_edited_user":null,"last_edited_date":null}},{"type":"Feature","id":363,"geometry":{"type":"Point","coordinates":[-122.7250590102906,45.46842642861576]},"properties":{"OBJECTID":363,"TREEID":326,"STATUS":"Heritage","HEIGHT":76,"SPREAD":49,"DIAMETER":28,"NOTES":"privately owned tree","SCIENTIFIC":"Metasequoia glyptostroboides","COMMON":"Dawn redwood","STATE_ID":"1S1E19DA  1000","SITE_ADDRESS":"4600 SW MAPLEWOOD RD","Date_Height":1533859200000,"Date_Spread":1533859200000,"CIRCUMF":7.4,"Date_Circumference":1533859200000,"YEAR_Designated":2016,"DATE_DESIG":1464739200000,"Ownership":"Private, Rear Yard","LAT":45.46842078,"LON":-122.72504479,"Delist_Date":null,"Delist_Ordinance":null,"Delist_Reason":null,"Neighborhood":"MAPLEWOOD","Vol_Inspection":null,"Native":null,"Site_Notes":null,"Ordinance":null,"County_Rec":null,"Plaque_adjustment_date":1533859200000,"Plaque_notes":null,"Tree_fact_short":null,"Tree_fact_long":null,"Species_fact_short":null,"Species_fact_long":null,"Owner_name":null,"Owner_address":null,"GlobalID":"{28078FA5-F436-41FD-B84D-0EBD3F5CB36D}","created_user":null,"created_date":null,"last_edited_user":null,"last_edited_date":null}},{"type":"Feature","id":369,"geometry":{"type":"Point","coordinates":[-122.7112973663136,45.497332079548364]},"properties":{"OBJECTID":369,"TREEID":null,"STATUS":"Merit","HEIGHT":null,"SPREAD":null,"DIAMETER":null,"NOTES":"Seedling brought from California by Dr. Meyers, first dean of the University of Oregon Medical School, and planted at his house in 1926","SCIENTIFIC":"Sequoiadendron giganteum","COMMON":"Giant sequoia","STATE_ID":"1S1E08DB  5400","SITE_ADDRESS":"3640 SW DOSCH RD","Date_Height":null,"Date_Spread":null,"CIRCUMF":null,"Date_Circumference":null,"YEAR_Designated":null,"DATE_DESIG":null,"Ownership":null,"LAT":45.49732642,"LON":-122.71128314,"Delist_Date":null,"Delist_Ordinance":null,"Delist_Reason":null,"Neighborhood":"SOUTHWEST HILLS","Vol_Inspection":null,"Native":null,"Site_Notes":null,"Ordinance":null,"County_Rec":null,"Plaque_adjustment_date":null,"Plaque_notes":null,"Tree_fact_short":null,"Tree_fact_long":null,"Species_fact_short":null,"Species_fact_long":null,"Owner_name":null,"Owner_address":null,"GlobalID":"{7D245F83-B41E-41FA-9FBC-EA6630646511}","created_user":null,"created_date":null,"last_edited_user":null,"last_edited_date":null}},{"type":"Feature","id":384,"geometry":{"type":"Point","coordinates":[-122.7092879410242,45.527882621519126]},"properties":{"OBJECTID":384,"TREEID":282,"STATUS":"Heritage","HEIGHT":114,"SPREAD":54,"DIAMETER":50,"NOTES":"This tree is to the right of the main entrance to the gymnasium.","SCIENTIFIC":"Sequoia sempervirens","COMMON":"Coast redwood","STATE_ID":"1N1E32AC  4400","SITE_ADDRESS":"701 NW CULPEPPER TER","Date_Height":1568146243000,"Date_Spread":1568146249000,"CIRCUMF":16.6,"Date_Circumference":1568146258000,"YEAR_Designated":2007,"DATE_DESIG":1183248000000,"Ownership":"Portland Parks & Recreation (Hillside Park)","LAT":45.52794385,"LON":-122.7086395,"Delist_Date":null,"Delist_Ordinance":null,"Delist_Reason":null,"Neighborhood":"HILLSIDE","Vol_Inspection":null,"Native":null,"Site_Notes":null,"Ordinance":null,"County_Rec":null,"Plaque_adjustment_date":1568152992000,"Plaque_notes":"Good condition ","Tree_fact_short":null,"Tree_fact_long":null,"Species_fact_short":null,"Species_fact_long":null,"Owner_name":null,"Owner_address":null,"GlobalID":"{339C94F8-6345-42BB-885D-3192E867D1FD}","created_user":null,"created_date":null,"last_edited_user":null,"last_edited_date":null}},{"type":"Feature","id":424,"geometry":{"type":"Point","coordinates":[-122.63424110474722,45.529351985782945]},"properties":{"OBJECTID":424,"TREEID":null,"STATUS":"Merit","HEIGHT":null,"SPREAD":null,"DIAMETER":null,"NOTES":"4 trees planted in the right-of-way in the 1950s","SCIENTIFIC":"Sequoiadendron giganteum","COMMON":"Giant sequoia","STATE_ID":"1N1E36BD  12800","SITE_ADDRESS":"3010 NE HOLLADAY ST","Date_Height":null,"Date_Spread":null,"CIRCUMF":null,"Date_Circumference":null,"YEAR_Designated":2015,"DATE_DESIG":1450396800000,"Ownership":"Right Of Way","LAT":45.52934632,"LON":-122.63422689,"Delist_Date":null,"Delist_Ordinance":null,"Delist_Reason":null,"Neighborhood":"KERNS","Vol_Inspection":null,"Native":null,"Site_Notes":null,"Ordinance":null,"County_Rec":null,"Plaque_adjustment_date":null,"Plaque_notes":null,"Tree_fact_short":null,"Tree_fact_long":null,"Species_fact_short":null,"Species_fact_long":null,"Owner_name":null,"Owner_address":null,"GlobalID":"{BED07DF4-3BC6-4554-A88F-C9EE717C4DAA}","created_user":null,"created_date":null,"last_edited_user":null,"last_edited_date":null}},{"type":"Feature","id":432,"geometry":{"type":"Point","coordinates":[-122.58441081123374,45.51382422342195]},"properties":{"OBJECTID":432,"TREEID":301,"STATUS":"Heritage","HEIGHT":131,"SPREAD":72,"DIAMETER":77,"NOTES":"This tree is adjacent to the exit for the parking lot at St. Andrews Care Center.","SCIENTIFIC":"Sequoia sempervirens","COMMON":"Coast redwood","STATE_ID":"1S2E05AC  1200","SITE_ADDRESS":"7617 SE MAIN ST","Date_Height":1533859200000,"Date_Spread":1533859200000,"CIRCUMF":20.11,"Date_Circumference":1533859200000,"YEAR_Designated":2010,"DATE_DESIG":1289347200000,"Ownership":"Private, Front Yard","LAT":45.51381856,"LON":-122.5843966,"Delist_Date":null,"Delist_Ordinance":null,"Delist_Reason":null,"Neighborhood":"MONTAVILLA","Vol_Inspection":null,"Native":null,"Site_Notes":null,"Ordinance":null,"County_Rec":null,"Plaque_adjustment_date":1533859200000,"Plaque_notes":null,"Tree_fact_short":null,"Tree_fact_long":null,"Species_fact_short":null,"Species_fact_long":null,"Owner_name":null,"Owner_address":null,"GlobalID":"{52996BD4-422F-405A-8833-12B0B34E339E}","created_user":null,"created_date":null,"last_edited_user":null,"last_edited_date":null}},{"type":"Feature","id":433,"geometry":{"type":"Point","coordinates":[-122.63433962298444,45.52935806302143]},"properties":{"OBJECTID":433,"TREEID":null,"STATUS":"Merit","HEIGHT":null,"SPREAD":null,"DIAMETER":null,"NOTES":"4 trees planted in the right-of-way in the 1950s","SCIENTIFIC":"Sequoiadendron giganteum","COMMON":"Giant sequoia","STATE_ID":"1N1E36BD  12800","SITE_ADDRESS":"3010 NE HOLLADAY ST","Date_Height":null,"Date_Spread":null,"CIRCUMF":null,"Date_Circumference":null,"YEAR_Designated":2015,"DATE_DESIG":1450396800000,"Ownership":"Right Of Way","LAT":45.5293524,"LON":-122.63432541,"Delist_Date":null,"Delist_Ordinance":null,"Delist_Reason":null,"Neighborhood":"KERNS","Vol_Inspection":null,"Native":null,"Site_Notes":null,"Ordinance":null,"County_Rec":null,"Plaque_adjustment_date":null,"Plaque_notes":null,"Tree_fact_short":null,"Tree_fact_long":null,"Species_fact_short":null,"Species_fact_long":null,"Owner_name":null,"Owner_address":null,"GlobalID":"{480879AC-CAD1-4549-93FD-FBDBADE95E82}","created_user":null,"created_date":null,"last_edited_user":null,"last_edited_date":null}},{"type":"Feature","id":446,"geometry":{"type":"Point","coordinates":[-122.72828151425144,45.52680220630522]},"properties":{"OBJECTID":446,"TREEID":306,"STATUS":"Heritage","HEIGHT":103,"SPREAD":42,"DIAMETER":40,"NOTES":"This row of trees is visible to the west of the entrance of the main parking area on NW Cornell.","SCIENTIFIC":"Metasequoia glyptostroboides","COMMON":"Dawn redwood","STATE_ID":"1N1E31A   200","SITE_ADDRESS":"Upper Macleay Park","Date_Height":1568222538000,"Date_Spread":1568222529000,"CIRCUMF":10.7,"Date_Circumference":1568222483000,"YEAR_Designated":2011,"DATE_DESIG":1317600000000,"Ownership":"Portland Parks & Recreation, (Upper Macleay Park)","LAT":45.52679655,"LON":-122.72826728,"Delist_Date":null,"Delist_Ordinance":null,"Delist_Reason":null,"Neighborhood":"FOREST PARK","Vol_Inspection":null,"Native":null,"Site_Notes":null,"Ordinance":null,"County_Rec":null,"Plaque_adjustment_date":1568239713000,"Plaque_notes":"Good condition ","Tree_fact_short":null,"Tree_fact_long":null,"Species_fact_short":null,"Species_fact_long":null,"Owner_name":null,"Owner_address":null,"GlobalID":"{1B087636-B5ED-4FFD-B261-6962C0438894}","created_user":null,"created_date":null,"last_edited_user":null,"last_edited_date":null}},{"type":"Feature","id":449,"geometry":{"type":"Point","coordinates":[-122.6341586429974,45.52936350528642]},"properties":{"OBJECTID":449,"TREEID":null,"STATUS":"Merit","HEIGHT":null,"SPREAD":null,"DIAMETER":null,"NOTES":"4 trees planted in the right-of-way in the 1950s","SCIENTIFIC":"Sequoiadendron giganteum","COMMON":"Giant sequoia","STATE_ID":"1N1E36BD  12800","SITE_ADDRESS":"3010 NE HOLLADAY ST","Date_Height":null,"Date_Spread":null,"CIRCUMF":null,"Date_Circumference":null,"YEAR_Designated":2015,"DATE_DESIG":1450396800000,"Ownership":"Right Of Way","LAT":45.52935784,"LON":-122.63414443,"Delist_Date":null,"Delist_Ordinance":null,"Delist_Reason":null,"Neighborhood":"KERNS","Vol_Inspection":null,"Native":null,"Site_Notes":null,"Ordinance":null,"County_Rec":null,"Plaque_adjustment_date":null,"Plaque_notes":null,"Tree_fact_short":null,"Tree_fact_long":null,"Species_fact_short":null,"Species_fact_long":null,"Owner_name":null,"Owner_address":null,"GlobalID":"{9662460F-5256-4089-B57E-34083DF150AA}","created_user":null,"created_date":null,"last_edited_user":null,"last_edited_date":null}}]}