{"type":"FeatureCollection","features":[{"type":"Feature","id":7,"geometry":{"type":"Point","coordinates":[-122.6282859616247,45.49092719189013]},"properties":{"OBJECTID":7,"TREEID":150,"STATUS":"Heritage","HEIGHT":87,"SPREAD":92,"DIAMETER":68,"NOTES":"on rear corner between SE 35th Ave and SE 35th Pl between SE Holgate Blvd and SE Cora St","SCIENTIFIC":"Juglans nigra","COMMON":"Black walnut","STATE_ID":"1S1E12DC  11400","SITE_ADDRESS":"4404 SE 35TH AVE","Date_Height":1536796800000,"Date_Spread":1536796800000,"CIRCUMF":17.9,"Date_Circumference":null,"YEAR_Designated":1997,"DATE_DESIG":870220800000,"Ownership":"Private, Rear Yard of 4 property","LAT":45.49092153,"LON":-122.62827175,"Delist_Date":null,"Delist_Ordinance":null,"Delist_Reason":null,"Neighborhood":"CRESTON-KENILWORTH","Vol_Inspection":null,"Native":null,"Site_Notes":null,"Ordinance":null,"County_Rec":null,"Plaque_adjustment_date":null,"Plaque_notes":null,"Tree_fact_short":null,"Tree_fact_long":null,"Species_fact_short":null,"Species_fact_long":null,"Owner_name":null,"Owner_address":null,"GlobalID":"{A2282FA7-5011-430A-93FC-9F443968D04D}","created_user":null,"created_date":null,"last_edited_user":null,"last_edited_date":null}},{"type":"Feature","id":8,"geometry":{"type":"Point","coordinates":[-122.65691152644982,45.46803875696575]},"properties":{"OBJECTID":8,"TREEID":242,"STATUS":"Heritage","HEIGHT":61,"SPREAD":84,"DIAMETER":47,"NOTES":"This tree is on SE 9th Ave.","SCIENTIFIC":"Juglans regia","COMMON":"English walnut","STATE_ID":"1S1E23CB  2100","SITE_ADDRESS":"907 SE BIDWELL ST","Date_Height":1535673600000,"Date_Spread":1535673600000,"CIRCUMF":12.4,"Date_Circumference":1535673600000,"YEAR_Designated":2003,"DATE_DESIG":null,"Ownership":"Right Of Way","LAT":45.4680331,"LON":-122.65689732,"Delist_Date":null,"Delist_Ordinance":null,"Delist_Reason":null,"Neighborhood":"SELLWOOD-MORELAND","Vol_Inspection":null,"Native":null,"Site_Notes":null,"Ordinance":null,"County_Rec":null,"Plaque_adjustment_date":1535673600000,"Plaque_notes":null,"Tree_fact_short":null,"Tree_fact_long":null,"Species_fact_short":null,"Species_fact_long":null,"Owner_name":null,"Owner_address":null,"GlobalID":"{CA655768-7EA9-4F9D-AAF2-1D8C7B7C763B}","created_user":null,"created_date":null,"last_edited_user":null,"last_edited_date":null}},{"type":"Feature","id":17,"geometry":{"type":"Point","coordinates":[-122.66594871385365,45.543073133620965]},"properties":{"OBJECTID":17,"TREEID":108,"STATUS":"Heritage","HEIGHT":81,"SPREAD":91,"DIAMETER":60,"NOTES":"This tree is fully visible from N Graham St.","SCIENTIFIC":"Juglans nigra","COMMON":"Black walnut","STATE_ID":"1N1E27AD  8200","SITE_ADDRESS":"2830 WI/ N WILLIAMS AVE","Date_Height":1533859200000,"Date_Spread":1533859200000,"CIRCUMF":15.7,"Date_Circumference":null,"YEAR_Designated":1996,"DATE_DESIG":846028800000,"Ownership":"Private, Rear Yard","LAT":45.54306747,"LON":-122.66593449,"Delist_Date":null,"Delist_Ordinance":null,"Delist_Reason":null,"Neighborhood":"ELIOT","Vol_Inspection":null,"Native":null,"Site_Notes":null,"Ordinance":null,"County_Rec":null,"Plaque_adjustment_date":1727373975000,"Plaque_notes":"Good condition ","Tree_fact_short":null,"Tree_fact_long":null,"Species_fact_short":null,"Species_fact_long":null,"Owner_name":null,"Owner_address":null,"GlobalID":"{CB32AAFA-0EA8-42F5-9722-B9F2FEFD0682}","created_user":null,"created_date":null,"last_edited_user":"sawolf","last_edited_date":1727373984000}},{"type":"Feature","id":68,"geometry":{"type":"Point","coordinates":[-122.62717146586914,45.462402244780925]},"properties":{"OBJECTID":68,"TREEID":74,"STATUS":"Heritage","HEIGHT":72,"SPREAD":61,"DIAMETER":62,"NOTES":"south side between SW 33rd Ave and SW 36th Ave","SCIENTIFIC":"Castanea sativa","COMMON":"Spanish chestnut","STATE_ID":"1S1E24DC  5201","SITE_ADDRESS":"3436 SE JOHNSON CREEK BLVD","Date_Height":1533859200000,"Date_Spread":1533859200000,"CIRCUMF":16.5,"Date_Circumference":1533859200000,"YEAR_Designated":1995,"DATE_DESIG":817603200000,"Ownership":"ROW","LAT":45.46238444,"LON":-122.62713406,"Delist_Date":null,"Delist_Ordinance":null,"Delist_Reason":null,"Neighborhood":"ARDENWALD-JOHNSON CREEK","Vol_Inspection":null,"Native":null,"Site_Notes":null,"Ordinance":null,"County_Rec":null,"Plaque_adjustment_date":1533859200000,"Plaque_notes":null,"Tree_fact_short":null,"Tree_fact_long":null,"Species_fact_short":null,"Species_fact_long":null,"Owner_name":null,"Owner_address":null,"GlobalID":"{1826813D-7174-4A8B-9247-14CEB8CA9B9D}","created_user":null,"created_date":null,"last_edited_user":"sawolf","last_edited_date":1745604455000}},{"type":"Feature","id":79,"geometry":{"type":"Point","coordinates":[-122.57666420285588,45.50332566846013]},"properties":{"OBJECTID":79,"TREEID":360,"STATUS":"Heritage","HEIGHT":72,"SPREAD":58,"DIAMETER":39,"NOTES":null,"SCIENTIFIC":"Castanea sativa","COMMON":"Spanish Chestnut","STATE_ID":"1S2E09BB  5603","SITE_ADDRESS":"2704 SE 84th Ave.","Date_Height":1531440000000,"Date_Spread":1531440000000,"CIRCUMF":10.1,"Date_Circumference":1531440000000,"YEAR_Designated":2019,"DATE_DESIG":1553644800000,"Ownership":"ROW","LAT":45.50332,"LON":-122.57665,"Delist_Date":null,"Delist_Ordinance":null,"Delist_Reason":null,"Neighborhood":"POWELLHURST-GILBERT","Vol_Inspection":null,"Native":null,"Site_Notes":null,"Ordinance":"189439","County_Rec":null,"Plaque_adjustment_date":null,"Plaque_notes":null,"Tree_fact_short":null,"Tree_fact_long":null,"Species_fact_short":null,"Species_fact_long":null,"Owner_name":null,"Owner_address":null,"GlobalID":"{BABAE634-2864-4634-BB3B-1B760A38696F}","created_user":null,"created_date":null,"last_edited_user":null,"last_edited_date":null}},{"type":"Feature","id":94,"geometry":{"type":"Point","coordinates":[-122.6675024130196,45.55585768784662]},"properties":{"OBJECTID":94,"TREEID":342,"STATUS":"Heritage","HEIGHT":64,"SPREAD":89,"DIAMETER":49,"NOTES":"Visible from alley","SCIENTIFIC":"Juglans regia","COMMON":"English walnut","STATE_ID":"1N1E22AC  6200","SITE_ADDRESS":"4528 N. Vancouver Ave.","Date_Height":1493596800000,"Date_Spread":1493596800000,"CIRCUMF":12.7,"Date_Circumference":1493596800000,"YEAR_Designated":2018,"DATE_DESIG":1519776000000,"Ownership":"Private, back yard","LAT":45.555869,"LON":-122.667537,"Delist_Date":null,"Delist_Ordinance":null,"Delist_Reason":null,"Neighborhood":"HUMBOLDT","Vol_Inspection":null,"Native":null,"Site_Notes":null,"Ordinance":"188843","County_Rec":null,"Plaque_adjustment_date":null,"Plaque_notes":null,"Tree_fact_short":null,"Tree_fact_long":null,"Species_fact_short":null,"Species_fact_long":null,"Owner_name":null,"Owner_address":null,"GlobalID":"{A949E7DB-DCD2-43F0-BE85-0729921C7BF7}","created_user":null,"created_date":null,"last_edited_user":null,"last_edited_date":null}},{"type":"Feature","id":121,"geometry":{"type":"Point","coordinates":[-122.61730328023361,45.565932247467664]},"properties":{"OBJECTID":121,"TREEID":78,"STATUS":"Heritage","HEIGHT":52,"SPREAD":78,"DIAMETER":46,"NOTES":"This tree is not visible from the street.","SCIENTIFIC":"Juglans regia","COMMON":"English walnut","STATE_ID":"1N2E18CC  2200","SITE_ADDRESS":"5941 NE 45TH AVE","Date_Height":1533859200000,"Date_Spread":1533859200000,"CIRCUMF":12.13,"Date_Circumference":1533859200000,"YEAR_Designated":1996,"DATE_DESIG":828489600000,"Ownership":"Private, Side Yard","LAT":45.56592658,"LON":-122.61728906,"Delist_Date":null,"Delist_Ordinance":null,"Delist_Reason":null,"Neighborhood":"CULLY","Vol_Inspection":null,"Native":null,"Site_Notes":null,"Ordinance":null,"County_Rec":null,"Plaque_adjustment_date":1533859200000,"Plaque_notes":null,"Tree_fact_short":null,"Tree_fact_long":null,"Species_fact_short":null,"Species_fact_long":null,"Owner_name":null,"Owner_address":null,"GlobalID":"{37059AD1-02B3-4898-98F2-364F6F69F162}","created_user":null,"created_date":null,"last_edited_user":null,"last_edited_date":null}},{"type":"Feature","id":126,"geometry":{"type":"Point","coordinates":[-122.64588140862183,45.53760246100903]},"properties":{"OBJECTID":126,"TREEID":89,"STATUS":"Heritage","HEIGHT":90,"SPREAD":99,"DIAMETER":49,"NOTES":"This tree was planted as a seedling in 1904.","SCIENTIFIC":"Quercus prinus","COMMON":"Chestnut oak","STATE_ID":"1N1E26DA  15800","SITE_ADDRESS":"1927 NE TILLAMOOK ST","Date_Height":null,"Date_Spread":null,"CIRCUMF":12.82,"Date_Circumference":null,"YEAR_Designated":1996,"DATE_DESIG":828489600000,"Ownership":"Private, Front Yard","LAT":45.5375968,"LON":-122.64586719,"Delist_Date":null,"Delist_Ordinance":null,"Delist_Reason":null,"Neighborhood":"IRVINGTON","Vol_Inspection":null,"Native":null,"Site_Notes":null,"Ordinance":null,"County_Rec":null,"Plaque_adjustment_date":null,"Plaque_notes":null,"Tree_fact_short":null,"Tree_fact_long":null,"Species_fact_short":null,"Species_fact_long":null,"Owner_name":null,"Owner_address":null,"GlobalID":"{E78FC644-29FC-4AF2-84A2-AAAC7A6A7021}","created_user":null,"created_date":null,"last_edited_user":null,"last_edited_date":null}},{"type":"Feature","id":147,"geometry":{"type":"Point","coordinates":[-122.70740534258161,45.48774625659772]},"properties":{"OBJECTID":147,"TREEID":290,"STATUS":"Heritage","HEIGHT":31,"SPREAD":39,"DIAMETER":30,"NOTES":"This tree is a Yellow Bellflower Apple and is at the dead end of this street.  It is over 160 years old and has great historical significance, being an Oregon State Heritage Tree and recognized by the Home Orchard Society.","SCIENTIFIC":"Malus x domestica 'Yellow Bellflower'","COMMON":"Yellow bellflower apple","STATE_ID":null,"SITE_ADDRESS":"4700-4799 SW Campbell Ct","Date_Height":1568216710000,"Date_Spread":1568216718000,"CIRCUMF":8.8,"Date_Circumference":1568216723000,"YEAR_Designated":2009,"DATE_DESIG":1249430400000,"Ownership":"Right Of Way","LAT":45.4877406,"LON":-122.70739112,"Delist_Date":null,"Delist_Ordinance":null,"Delist_Reason":null,"Neighborhood":"HILLSDALE","Vol_Inspection":null,"Native":null,"Site_Notes":null,"Ordinance":null,"County_Rec":null,"Plaque_adjustment_date":1568239466000,"Plaque_notes":"No City of Portland plaque, only OR plaque on post. ","Tree_fact_short":null,"Tree_fact_long":null,"Species_fact_short":null,"Species_fact_long":null,"Owner_name":null,"Owner_address":null,"GlobalID":"{544FB82F-BE58-483B-8684-1FEAD37168C4}","created_user":null,"created_date":null,"last_edited_user":null,"last_edited_date":null}},{"type":"Feature","id":160,"geometry":{"type":"Point","coordinates":[-122.62652585835252,45.569549378930645]},"properties":{"OBJECTID":160,"TREEID":310,"STATUS":"Heritage","HEIGHT":50,"SPREAD":36,"DIAMETER":19,"NOTES":null,"SCIENTIFIC":"Diospyros virginiana","COMMON":"American persimmon","STATE_ID":"1N1E13DB  1800","SITE_ADDRESS":"6440 NE 36TH AVE","Date_Height":1533859200000,"Date_Spread":1533859200000,"CIRCUMF":5.06,"Date_Circumference":1533859200000,"YEAR_Designated":2011,"DATE_DESIG":1317600000000,"Ownership":"Right Of Way","LAT":45.56954371,"LON":-122.62651163,"Delist_Date":null,"Delist_Ordinance":null,"Delist_Reason":null,"Neighborhood":"CONCORDIA","Vol_Inspection":null,"Native":null,"Site_Notes":null,"Ordinance":null,"County_Rec":null,"Plaque_adjustment_date":1533859200000,"Plaque_notes":null,"Tree_fact_short":null,"Tree_fact_long":null,"Species_fact_short":null,"Species_fact_long":null,"Owner_name":null,"Owner_address":null,"GlobalID":"{EDCDE40A-4A90-4F78-8E02-039657257E4C}","created_user":null,"created_date":null,"last_edited_user":null,"last_edited_date":null}},{"type":"Feature","id":165,"geometry":{"type":"Point","coordinates":[-122.65557287857297,45.46865539126383]},"properties":{"OBJECTID":165,"TREEID":101,"STATUS":"Heritage","HEIGHT":96,"SPREAD":71,"DIAMETER":55,"NOTES":"This is the east tree in a pair at this address.  The pair is on north side between SE 9th Ave and SE 11th Ave.","SCIENTIFIC":"Aesculus hippocastanum","COMMON":"Common horsechestnut","STATE_ID":"1S1E23BD  15300","SITE_ADDRESS":"1013 SE LAMBERT ST","Date_Height":1535673600000,"Date_Spread":1535673600000,"CIRCUMF":14.4,"Date_Circumference":1535673600000,"YEAR_Designated":1996,"DATE_DESIG":836524800000,"Ownership":"Right Of Way","LAT":45.46864789,"LON":-122.65565669,"Delist_Date":null,"Delist_Ordinance":null,"Delist_Reason":null,"Neighborhood":"SELLWOOD-MORELAND","Vol_Inspection":null,"Native":null,"Site_Notes":null,"Ordinance":null,"County_Rec":null,"Plaque_adjustment_date":1535673600000,"Plaque_notes":null,"Tree_fact_short":null,"Tree_fact_long":null,"Species_fact_short":null,"Species_fact_long":null,"Owner_name":null,"Owner_address":null,"GlobalID":"{FCBDA682-7DEB-42AD-8B4A-BC9DBDE7422D}","created_user":null,"created_date":null,"last_edited_user":null,"last_edited_date":null}},{"type":"Feature","id":172,"geometry":{"type":"Point","coordinates":[-122.64910440036786,45.46689858521714]},"properties":{"OBJECTID":172,"TREEID":115,"STATUS":"Heritage","HEIGHT":34,"SPREAD":56,"DIAMETER":51,"NOTES":"This the southernmost tree in a pair of Heritage Butternuts along 16th Ave.","SCIENTIFIC":"Juglans cinerea","COMMON":"Butternut","STATE_ID":"1S1E23DB  14400","SITE_ADDRESS":"1584 SE LEXINGTON ST","Date_Height":1535673600000,"Date_Spread":1535673600000,"CIRCUMF":13.2,"Date_Circumference":1535673600000,"YEAR_Designated":1996,"DATE_DESIG":846028800000,"Ownership":"Right Of Way (SE 16th)","LAT":45.46697508,"LON":-122.64908925,"Delist_Date":null,"Delist_Ordinance":null,"Delist_Reason":null,"Neighborhood":"SELLWOOD-MORELAND","Vol_Inspection":null,"Native":null,"Site_Notes":null,"Ordinance":null,"County_Rec":null,"Plaque_adjustment_date":1535673600000,"Plaque_notes":null,"Tree_fact_short":null,"Tree_fact_long":null,"Species_fact_short":null,"Species_fact_long":null,"Owner_name":null,"Owner_address":null,"GlobalID":"{B9168DBB-AE39-44E4-94EA-EAB2D977D921}","created_user":null,"created_date":null,"last_edited_user":null,"last_edited_date":null}},{"type":"Feature","id":174,"geometry":{"type":"Point","coordinates":[-122.64952533743528,45.53923572257657]},"properties":{"OBJECTID":174,"TREEID":261,"STATUS":"Heritage","HEIGHT":96,"SPREAD":66,"DIAMETER":54,"NOTES":"","SCIENTIFIC":"Aesculus hippocastanum 'Baumannii'","COMMON":"Common horsechestnut","STATE_ID":"1N1E26DB  4800","SITE_ADDRESS":"1529 NE THOMPSON","Date_Height":1568052078000,"Date_Spread":1568052067000,"CIRCUMF":14.3,"Date_Circumference":1568052071000,"YEAR_Designated":2004,"DATE_DESIG":null,"Ownership":"Right Of Way","LAT":45.53923006,"LON":-122.64951112,"Delist_Date":null,"Delist_Ordinance":null,"Delist_Reason":null,"Neighborhood":"IRVINGTON","Vol_Inspection":null,"Native":null,"Site_Notes":null,"Ordinance":null,"County_Rec":null,"Plaque_adjustment_date":1568066129000,"Plaque_notes":"Replaced nails with new hardware (screws, washers and springs)","Tree_fact_short":null,"Tree_fact_long":null,"Species_fact_short":null,"Species_fact_long":null,"Owner_name":null,"Owner_address":null,"GlobalID":"{88E42C16-C54F-48E1-8979-EE4AED077783}","created_user":null,"created_date":null,"last_edited_user":null,"last_edited_date":null}},{"type":"Feature","id":179,"geometry":{"type":"Point","coordinates":[-122.62577345372509,45.48848753096885]},"properties":{"OBJECTID":179,"TREEID":315,"STATUS":"Heritage","HEIGHT":85,"SPREAD":65,"DIAMETER":58,"NOTES":null,"SCIENTIFIC":"Aesculus hippocastanum","COMMON":"Common horsechestnut","STATE_ID":"1S1E13AB  11400","SITE_ADDRESS":"4741 SE 36TH PL","Date_Height":1536192000000,"Date_Spread":1536192000000,"CIRCUMF":15.3,"Date_Circumference":1536192000000,"YEAR_Designated":2014,"DATE_DESIG":1397001600000,"Ownership":"Right Of Way","LAT":45.48848187,"LON":-122.62575925,"Delist_Date":null,"Delist_Ordinance":null,"Delist_Reason":null,"Neighborhood":"REED","Vol_Inspection":null,"Native":null,"Site_Notes":null,"Ordinance":null,"County_Rec":null,"Plaque_adjustment_date":1536192000000,"Plaque_notes":null,"Tree_fact_short":null,"Tree_fact_long":null,"Species_fact_short":null,"Species_fact_long":null,"Owner_name":null,"Owner_address":null,"GlobalID":"{48D088D5-E134-4C9E-8447-F7EF599E6A5F}","created_user":null,"created_date":null,"last_edited_user":null,"last_edited_date":null}},{"type":"Feature","id":212,"geometry":{"type":"Point","coordinates":[-122.61360802348148,45.46562316898534]},"properties":{"OBJECTID":212,"TREEID":151,"STATUS":"Heritage","HEIGHT":92,"SPREAD":92,"DIAMETER":48,"NOTES":"south side between SE 48th Ave and SE 49th Ave","SCIENTIFIC":"Juglans nigra","COMMON":"Black walnut","STATE_ID":"1S2E19CA  16700","SITE_ADDRESS":"4818 SE TENINO DR","Date_Height":1533859200000,"Date_Spread":1533859200000,"CIRCUMF":12.45,"Date_Circumference":1533859200000,"YEAR_Designated":1997,"DATE_DESIG":870220800000,"Ownership":"Private, Front Yard","LAT":45.46561751,"LON":-122.61359382,"Delist_Date":null,"Delist_Ordinance":null,"Delist_Reason":null,"Neighborhood":"BRENTWOOD-DARLINGTON","Vol_Inspection":null,"Native":null,"Site_Notes":null,"Ordinance":null,"County_Rec":null,"Plaque_adjustment_date":1533859200000,"Plaque_notes":null,"Tree_fact_short":null,"Tree_fact_long":null,"Species_fact_short":null,"Species_fact_long":null,"Owner_name":null,"Owner_address":null,"GlobalID":"{94180913-1817-4617-AF0B-C8B5138350B5}","created_user":null,"created_date":null,"last_edited_user":null,"last_edited_date":null}},{"type":"Feature","id":228,"geometry":{"type":"Point","coordinates":[-122.60595871163204,45.518488047689154]},"properties":{"OBJECTID":228,"TREEID":null,"STATUS":"Merit","HEIGHT":null,"SPREAD":null,"DIAMETER":null,"NOTES":"This tree possibly remains from the late 1800s Prettyman Nursery (SE 55 Ave was originally named Prettyman Avenue)","SCIENTIFIC":"Castanea sativa","COMMON":"Spanish chestnut","STATE_ID":"1S2E06AB  1400","SITE_ADDRESS":"600 SE 55TH AVE","Date_Height":null,"Date_Spread":null,"CIRCUMF":null,"Date_Circumference":null,"YEAR_Designated":null,"DATE_DESIG":null,"Ownership":null,"LAT":45.51848238,"LON":-122.6059445,"Delist_Date":null,"Delist_Ordinance":null,"Delist_Reason":null,"Neighborhood":"MT. TABOR","Vol_Inspection":null,"Native":null,"Site_Notes":null,"Ordinance":null,"County_Rec":null,"Plaque_adjustment_date":null,"Plaque_notes":null,"Tree_fact_short":null,"Tree_fact_long":null,"Species_fact_short":null,"Species_fact_long":null,"Owner_name":null,"Owner_address":null,"GlobalID":"{EAB11768-22D3-485C-8D06-BD78E4C15020}","created_user":null,"created_date":null,"last_edited_user":null,"last_edited_date":null}},{"type":"Feature","id":284,"geometry":{"type":"Point","coordinates":[-122.5446597221076,45.540093658516135]},"properties":{"OBJECTID":284,"TREEID":389,"STATUS":"Heritage","HEIGHT":54,"SPREAD":55,"DIAMETER":25,"NOTES":"Corylus colurna, Turkish hazel ","SCIENTIFIC":"Corylus colurna","COMMON":"Turkish hazel","STATE_ID":null,"SITE_ADDRESS":"Knott Park","Date_Height":null,"Date_Spread":null,"CIRCUMF":null,"Date_Circumference":null,"YEAR_Designated":2022,"DATE_DESIG":1678838400000,"Ownership":"Parks","LAT":null,"LON":null,"Delist_Date":null,"Delist_Ordinance":null,"Delist_Reason":null,"Neighborhood":"PARKROSE HEIGHTS","Vol_Inspection":null,"Native":null,"Site_Notes":null,"Ordinance":null,"County_Rec":null,"Plaque_adjustment_date":null,"Plaque_notes":null,"Tree_fact_short":null,"Tree_fact_long":null,"Species_fact_short":null,"Species_fact_long":null,"Owner_name":null,"Owner_address":null,"GlobalID":"{AE0D5C1F-7451-4438-ADFC-0A10D40D4459}","created_user":null,"created_date":null,"last_edited_user":null,"last_edited_date":null}},{"type":"Feature","id":292,"geometry":{"type":"Point","coordinates":[-122.63458380124833,45.50902466934455]},"properties":{"OBJECTID":292,"TREEID":58,"STATUS":"Heritage","HEIGHT":63,"SPREAD":91,"DIAMETER":56,"NOTES":"east side between SE Stephens St and SE Market St","SCIENTIFIC":"Juglans nigra","COMMON":"Black walnut","STATE_ID":"1S1E01CA  10900","SITE_ADDRESS":"1942 SE 30TH AVE","Date_Height":1535500800000,"Date_Spread":1535500800000,"CIRCUMF":14.7,"Date_Circumference":1535500800000,"YEAR_Designated":1995,"DATE_DESIG":817603200000,"Ownership":"Private, Front Yard","LAT":45.50901077,"LON":-122.63460288,"Delist_Date":null,"Delist_Ordinance":null,"Delist_Reason":null,"Neighborhood":"RICHMOND","Vol_Inspection":null,"Native":null,"Site_Notes":null,"Ordinance":null,"County_Rec":null,"Plaque_adjustment_date":1535500800000,"Plaque_notes":null,"Tree_fact_short":null,"Tree_fact_long":null,"Species_fact_short":null,"Species_fact_long":null,"Owner_name":null,"Owner_address":null,"GlobalID":"{083F004D-5883-4C87-B73A-B3DB9D0471E0}","created_user":null,"created_date":null,"last_edited_user":null,"last_edited_date":null}},{"type":"Feature","id":302,"geometry":{"type":"Point","coordinates":[-122.65562835313501,45.468654120578144]},"properties":{"OBJECTID":302,"TREEID":100,"STATUS":"Heritage","HEIGHT":94,"SPREAD":69,"DIAMETER":61,"NOTES":"This is the west tree in a pair at this address.  The pair is on north side between SE 9th Ave and SE 11th Ave","SCIENTIFIC":"Aesculus hippocastanum","COMMON":"Common horsechestnut","STATE_ID":"1S1E23BD  15300","SITE_ADDRESS":"1013 SE LAMBERT ST","Date_Height":1535673600000,"Date_Spread":1535673600000,"CIRCUMF":15.9,"Date_Circumference":1535673600000,"YEAR_Designated":1996,"DATE_DESIG":836524800000,"Ownership":"Right Of Way","LAT":45.46865099,"LON":-122.65557046,"Delist_Date":null,"Delist_Ordinance":null,"Delist_Reason":null,"Neighborhood":"SELLWOOD-MORELAND","Vol_Inspection":null,"Native":null,"Site_Notes":null,"Ordinance":null,"County_Rec":null,"Plaque_adjustment_date":1535673600000,"Plaque_notes":null,"Tree_fact_short":null,"Tree_fact_long":null,"Species_fact_short":null,"Species_fact_long":null,"Owner_name":null,"Owner_address":null,"GlobalID":"{4236A020-A046-47FF-BC33-62263C4C83DD}","created_user":null,"created_date":null,"last_edited_user":null,"last_edited_date":null}},{"type":"Feature","id":313,"geometry":{"type":"Point","coordinates":[-122.64737876724978,45.47472506994475]},"properties":{"OBJECTID":313,"TREEID":null,"STATUS":"Merit","HEIGHT":null,"SPREAD":null,"DIAMETER":null,"NOTES":null,"SCIENTIFIC":"Prunus spp.","COMMON":"Cherry","STATE_ID":"1S1E23AB  9200","SITE_ADDRESS":"6726 SE 17TH AVE","Date_Height":null,"Date_Spread":null,"CIRCUMF":null,"Date_Circumference":null,"YEAR_Designated":2015,"DATE_DESIG":1450396800000,"Ownership":"Private, Rear Yard","LAT":45.47471941,"LON":-122.64736456,"Delist_Date":null,"Delist_Ordinance":null,"Delist_Reason":null,"Neighborhood":"SELLWOOD-MORELAND","Vol_Inspection":null,"Native":null,"Site_Notes":null,"Ordinance":null,"County_Rec":null,"Plaque_adjustment_date":null,"Plaque_notes":null,"Tree_fact_short":null,"Tree_fact_long":null,"Species_fact_short":null,"Species_fact_long":null,"Owner_name":null,"Owner_address":null,"GlobalID":"{70014D00-1A67-4462-A680-9895BC2F28BE}","created_user":null,"created_date":null,"last_edited_user":null,"last_edited_date":null}},{"type":"Feature","id":333,"geometry":{"type":"Point","coordinates":[-122.65708241386463,45.55544872817903]},"properties":{"OBJECTID":333,"TREEID":297,"STATUS":"Heritage","HEIGHT":75,"SPREAD":51,"DIAMETER":45,"NOTES":"","SCIENTIFIC":"Castanea sativa","COMMON":"Spanish chestnut","STATE_ID":"1N1E23CB  100","SITE_ADDRESS":"828 NE PRESCOTT ST","Date_Height":1533859200000,"Date_Spread":1533859200000,"CIRCUMF":11.7,"Date_Circumference":1533859200000,"YEAR_Designated":2009,"DATE_DESIG":1249430400000,"Ownership":"Right Of Way","LAT":45.55543992,"LON":-122.65709383,"Delist_Date":null,"Delist_Ordinance":null,"Delist_Reason":null,"Neighborhood":"KING","Vol_Inspection":null,"Native":null,"Site_Notes":null,"Ordinance":null,"County_Rec":null,"Plaque_adjustment_date":1533859200000,"Plaque_notes":null,"Tree_fact_short":null,"Tree_fact_long":null,"Species_fact_short":null,"Species_fact_long":null,"Owner_name":null,"Owner_address":null,"GlobalID":"{96D4BDAF-1859-42E3-B449-4E878BA1F5DD}","created_user":null,"created_date":null,"last_edited_user":null,"last_edited_date":null}},{"type":"Feature","id":335,"geometry":{"type":"Point","coordinates":[-122.65669353587306,45.49396138136796]},"properties":{"OBJECTID":335,"TREEID":204,"STATUS":"Heritage","HEIGHT":56,"SPREAD":60,"DIAMETER":47,"NOTES":"This tree is a Gravenstein Apple in the upaved part of SE Center St. It is possibly the last remaining tree of an extensive apple orchard planted by Gideon Tibbetts who came to Oregon in 1847 and died in 1887.","SCIENTIFIC":"Malus x domestica 'Gravenstein'","COMMON":"Gravenstein apple","STATE_ID":"1S1E11CC  200","SITE_ADDRESS":"4017 SE 9TH AVE","Date_Height":1534896000000,"Date_Spread":1534896000000,"CIRCUMF":12.3,"Date_Circumference":1534896000000,"YEAR_Designated":1999,"DATE_DESIG":940464000000,"Ownership":"Right Of Way (Center St)","LAT":45.49371575,"LON":-122.65648458,"Delist_Date":null,"Delist_Ordinance":null,"Delist_Reason":null,"Neighborhood":"BROOKLYN","Vol_Inspection":null,"Native":null,"Site_Notes":null,"Ordinance":null,"County_Rec":null,"Plaque_adjustment_date":1534896000000,"Plaque_notes":"[]=-","Tree_fact_short":null,"Tree_fact_long":null,"Species_fact_short":null,"Species_fact_long":null,"Owner_name":null,"Owner_address":null,"GlobalID":"{C66A4735-F3F8-4C38-988C-51F466FAB9FB}","created_user":null,"created_date":null,"last_edited_user":null,"last_edited_date":null}},{"type":"Feature","id":353,"geometry":{"type":"Point","coordinates":[-122.68759258127375,45.5190291383575]},"properties":{"OBJECTID":353,"TREEID":35,"STATUS":"Heritage","HEIGHT":95,"SPREAD":93,"DIAMETER":53,"NOTES":"This tree is at Lincoln High School, on the corner of SW Salmon and SW 14th Ave.  The tree was planted in the late 19th century on the Jacob Kamm estate, 13 acres bordered by SW Salmon, SW Jefferson, SW 14th and SW 18th. The Kamm house was moved in 1950*","SCIENTIFIC":"Juglans nigra","COMMON":"Black walnut","STATE_ID":"1S1E04AB  100","SITE_ADDRESS":"1600 SW SALMON ST","Date_Height":1533859200000,"Date_Spread":1533859200000,"CIRCUMF":13.9,"Date_Circumference":1533859200000,"YEAR_Designated":1994,"DATE_DESIG":782870400000,"Ownership":"Portland Public Schools","LAT":45.51902348,"LON":-122.68757836,"Delist_Date":null,"Delist_Ordinance":null,"Delist_Reason":null,"Neighborhood":"GOOSE HOLLOW","Vol_Inspection":null,"Native":null,"Site_Notes":null,"Ordinance":null,"County_Rec":null,"Plaque_adjustment_date":1533859200000,"Plaque_notes":null,"Tree_fact_short":null,"Tree_fact_long":null,"Species_fact_short":null,"Species_fact_long":null,"Owner_name":null,"Owner_address":null,"GlobalID":"{E63640BA-F0DE-4764-AAA8-D8FE31136FBC}","created_user":null,"created_date":null,"last_edited_user":null,"last_edited_date":null}},{"type":"Feature","id":361,"geometry":{"type":"Point","coordinates":[-122.62969635524834,45.48698882735698]},"properties":{"OBJECTID":361,"TREEID":321,"STATUS":"Heritage","HEIGHT":39,"SPREAD":46,"DIAMETER":39,"NOTES":null,"SCIENTIFIC":"Malus x domestica 'Gravenstein'","COMMON":"Gravenstein apple","STATE_ID":"1S1E13AB  16400","SITE_ADDRESS":"5003 SE 34th Ave","Date_Height":1536192000000,"Date_Spread":1536192000000,"CIRCUMF":10.2,"Date_Circumference":1536192000000,"YEAR_Designated":2015,"DATE_DESIG":1434499200000,"Ownership":"Private, Front Yard","LAT":45.48698316,"LON":-122.62968215,"Delist_Date":null,"Delist_Ordinance":null,"Delist_Reason":null,"Neighborhood":"REED","Vol_Inspection":null,"Native":null,"Site_Notes":null,"Ordinance":null,"County_Rec":null,"Plaque_adjustment_date":1536192000000,"Plaque_notes":null,"Tree_fact_short":null,"Tree_fact_long":null,"Species_fact_short":null,"Species_fact_long":null,"Owner_name":null,"Owner_address":null,"GlobalID":"{E3FA0342-16EB-4ADB-AD28-9867EBF87275}","created_user":null,"created_date":null,"last_edited_user":null,"last_edited_date":null}},{"type":"Feature","id":372,"geometry":{"type":"Point","coordinates":[-122.6503808246399,45.5564313638759]},"properties":{"OBJECTID":372,"TREEID":249,"STATUS":"Heritage","HEIGHT":73,"SPREAD":74,"DIAMETER":54,"NOTES":"","SCIENTIFIC":"Aesculus hippocastanum","COMMON":"Common horsechestnut","STATE_ID":"1N1E23AC  10900","SITE_ADDRESS":"1465 NE GOING ST","Date_Height":1533859200000,"Date_Spread":1533859200000,"CIRCUMF":13.5,"Date_Circumference":1456790400000,"YEAR_Designated":2003,"DATE_DESIG":null,"Ownership":"Right Of Way","LAT":45.55641837,"LON":-122.65039182,"Delist_Date":null,"Delist_Ordinance":null,"Delist_Reason":null,"Neighborhood":"SABIN","Vol_Inspection":null,"Native":null,"Site_Notes":null,"Ordinance":null,"County_Rec":null,"Plaque_adjustment_date":1533859200000,"Plaque_notes":null,"Tree_fact_short":null,"Tree_fact_long":null,"Species_fact_short":null,"Species_fact_long":null,"Owner_name":null,"Owner_address":null,"GlobalID":"{95CE037A-80AC-481B-B521-C737A9D47E99}","created_user":null,"created_date":null,"last_edited_user":null,"last_edited_date":null}},{"type":"Feature","id":401,"geometry":{"type":"Point","coordinates":[-122.75791808711473,45.5894059290085]},"properties":{"OBJECTID":401,"TREEID":322,"STATUS":"Heritage","HEIGHT":70,"SPREAD":57,"DIAMETER":42,"NOTES":null,"SCIENTIFIC":"Aesculus hippocastanum","COMMON":"Common horsechestnut","STATE_ID":"1N1W12BA  10100","SITE_ADDRESS":"8710 N. Willamette Blvd","Date_Height":1568062201000,"Date_Spread":1568062199000,"CIRCUMF":11.1,"Date_Circumference":1568062203000,"YEAR_Designated":2015,"DATE_DESIG":1434499200000,"Ownership":"Right Of Way","LAT":45.58940027,"LON":-122.75790384,"Delist_Date":null,"Delist_Ordinance":null,"Delist_Reason":null,"Neighborhood":"CATHEDRAL PARK","Vol_Inspection":null,"Native":null,"Site_Notes":null,"Ordinance":null,"County_Rec":null,"Plaque_adjustment_date":1568067053000,"Plaque_notes":"Good condition ","Tree_fact_short":null,"Tree_fact_long":null,"Species_fact_short":null,"Species_fact_long":null,"Owner_name":null,"Owner_address":null,"GlobalID":"{FA6BBD94-E96E-43B1-BF5B-2C313D9BED85}","created_user":null,"created_date":null,"last_edited_user":null,"last_edited_date":null}},{"type":"Feature","id":412,"geometry":{"type":"Point","coordinates":[-122.58410038850586,45.479130865564365]},"properties":{"OBJECTID":412,"TREEID":31,"STATUS":"Heritage","HEIGHT":73,"SPREAD":76,"DIAMETER":50,"NOTES":"This tree is along SE 77th Ave.","SCIENTIFIC":"Juglans nigra","COMMON":"Black walnut","STATE_ID":"1S2E17DD  20800","SITE_ADDRESS":"7703 SE MARTINS ST","Date_Height":1535673600000,"Date_Spread":1535673600000,"CIRCUMF":13.3,"Date_Circumference":1535673600000,"YEAR_Designated":1994,"DATE_DESIG":782870400000,"Ownership":"Right Of Way (SE 77th)","LAT":45.4791252,"LON":-122.58408619,"Delist_Date":null,"Delist_Ordinance":null,"Delist_Reason":null,"Neighborhood":"MT. SCOTT-ARLETA","Vol_Inspection":null,"Native":null,"Site_Notes":null,"Ordinance":null,"County_Rec":null,"Plaque_adjustment_date":1535673600000,"Plaque_notes":null,"Tree_fact_short":null,"Tree_fact_long":null,"Species_fact_short":null,"Species_fact_long":null,"Owner_name":null,"Owner_address":null,"GlobalID":"{B84F012E-9B57-4B3F-810C-8009CEB84AC5}","created_user":null,"created_date":null,"last_edited_user":null,"last_edited_date":null}},{"type":"Feature","id":414,"geometry":{"type":"Point","coordinates":[-122.71080667775931,45.587602946060905]},"properties":{"OBJECTID":414,"TREEID":235,"STATUS":"Heritage","HEIGHT":65,"SPREAD":82,"DIAMETER":50,"NOTES":"This tree is against the main building, next to the parking lot at the Charles Jordan Community Center.","SCIENTIFIC":"Juglans cinerea","COMMON":"Butternut","STATE_ID":"1N1E08AC  100","SITE_ADDRESS":"9009 N FOSS AVE","Date_Height":1538760179000,"Date_Spread":1538760271000,"CIRCUMF":13.5,"Date_Circumference":1539040079000,"YEAR_Designated":1999,"DATE_DESIG":940464000000,"Ownership":"Portland Parks & Recreation (University Park Community Center)","LAT":45.5875147,"LON":-122.71072806,"Delist_Date":null,"Delist_Ordinance":null,"Delist_Reason":null,"Neighborhood":"PORTSMOUTH","Vol_Inspection":null,"Native":null,"Site_Notes":null,"Ordinance":null,"County_Rec":null,"Plaque_adjustment_date":1539040102000,"Plaque_notes":null,"Tree_fact_short":null,"Tree_fact_long":null,"Species_fact_short":null,"Species_fact_long":null,"Owner_name":null,"Owner_address":null,"GlobalID":"{CCBE406F-DB48-46B8-8594-5F11B1F0F3E0}","created_user":null,"created_date":null,"last_edited_user":null,"last_edited_date":null}},{"type":"Feature","id":416,"geometry":{"type":"Point","coordinates":[-122.64748901748463,45.54756945877915]},"properties":{"OBJECTID":416,"TREEID":213,"STATUS":"Heritage","HEIGHT":25,"SPREAD":35,"DIAMETER":35,"NOTES":"This tree is perhaps 80 years old.","SCIENTIFIC":"Prunus pendula","COMMON":"Weeping cherry","STATE_ID":"1N1E26AB  2400","SITE_ADDRESS":"3403 NE 18TH AVE","Date_Height":null,"Date_Spread":null,"CIRCUMF":9.2,"Date_Circumference":null,"YEAR_Designated":1999,"DATE_DESIG":940464000000,"Ownership":"Private, Rear Yard","LAT":45.54756379,"LON":-122.64747479,"Delist_Date":null,"Delist_Ordinance":null,"Delist_Reason":null,"Neighborhood":"IRVINGTON","Vol_Inspection":null,"Native":null,"Site_Notes":null,"Ordinance":null,"County_Rec":null,"Plaque_adjustment_date":null,"Plaque_notes":null,"Tree_fact_short":null,"Tree_fact_long":null,"Species_fact_short":null,"Species_fact_long":null,"Owner_name":null,"Owner_address":null,"GlobalID":"{FFEAC5C0-0698-4BA4-B290-129DC7EFD7C7}","created_user":null,"created_date":null,"last_edited_user":null,"last_edited_date":null}},{"type":"Feature","id":426,"geometry":{"type":"Point","coordinates":[-122.67053681245491,45.52165295351553]},"properties":{"OBJECTID":426,"TREEID":217,"STATUS":"Heritage","HEIGHT":15,"SPREAD":27,"DIAMETER":30,"NOTES":"55SW ash and Natio parkway Bill Naito's Favorite Tree First Gift from Sapporo","SCIENTIFIC":"Prunus x yedoensis","COMMON":"Yoshino cherry","STATE_ID":"1N1E34DC  1400","SITE_ADDRESS":"65 SW NAITO PKWY","Date_Height":1568231639000,"Date_Spread":1568231636000,"CIRCUMF":8,"Date_Circumference":1568231647000,"YEAR_Designated":1999,"DATE_DESIG":940464000000,"Ownership":"Right Of Way","LAT":45.52164729,"LON":-122.67052259,"Delist_Date":null,"Delist_Ordinance":null,"Delist_Reason":null,"Neighborhood":"OLD TOWN/CHINATOWN","Vol_Inspection":null,"Native":null,"Site_Notes":null,"Ordinance":null,"County_Rec":null,"Plaque_adjustment_date":1568238522000,"Plaque_notes":"Good condition ","Tree_fact_short":null,"Tree_fact_long":null,"Species_fact_short":null,"Species_fact_long":null,"Owner_name":null,"Owner_address":null,"GlobalID":"{D60B6164-0BFE-4E4E-B67F-F5D5DCBBAAAC}","created_user":null,"created_date":null,"last_edited_user":null,"last_edited_date":null}},{"type":"Feature","id":439,"geometry":{"type":"Point","coordinates":[-122.60445298250225,45.524632105427635]},"properties":{"OBJECTID":439,"TREEID":327,"STATUS":"Heritage","HEIGHT":34,"SPREAD":39,"DIAMETER":18,"NOTES":null,"SCIENTIFIC":"Prunus x ‘Shirotae’","COMMON":"Mt. Fuji flowering cherry","STATE_ID":"1N2E31DA  11200","SITE_ADDRESS":"221 NE 58TH AVE","Date_Height":null,"Date_Spread":null,"CIRCUMF":4.7,"Date_Circumference":null,"YEAR_Designated":2016,"DATE_DESIG":1464739200000,"Ownership":"Private, Front Yard","LAT":45.52462644,"LON":-122.60443877,"Delist_Date":null,"Delist_Ordinance":null,"Delist_Reason":null,"Neighborhood":"NORTH TABOR","Vol_Inspection":null,"Native":null,"Site_Notes":null,"Ordinance":null,"County_Rec":null,"Plaque_adjustment_date":null,"Plaque_notes":null,"Tree_fact_short":null,"Tree_fact_long":null,"Species_fact_short":null,"Species_fact_long":null,"Owner_name":null,"Owner_address":null,"GlobalID":"{C309C6F5-EFD1-49AE-A0A3-8E845571F0C7}","created_user":null,"created_date":null,"last_edited_user":null,"last_edited_date":null}},{"type":"Feature","id":442,"geometry":{"type":"Point","coordinates":[-122.6469209498484,45.55809066638666]},"properties":{"OBJECTID":442,"TREEID":320,"STATUS":"Heritage","HEIGHT":24,"SPREAD":30,"DIAMETER":31,"NOTES":null,"SCIENTIFIC":"Prunus armeniaca","COMMON":"Apricot","STATE_ID":"1N1E23AC  2600","SITE_ADDRESS":"4823 NE 18th Ave","Date_Height":1533859200000,"Date_Spread":1533859200000,"CIRCUMF":8.2,"Date_Circumference":1533859200000,"YEAR_Designated":2015,"DATE_DESIG":1434499200000,"Ownership":"Private, Front Yard","LAT":45.558085,"LON":-122.64690672,"Delist_Date":null,"Delist_Ordinance":null,"Delist_Reason":null,"Neighborhood":"VERNON","Vol_Inspection":null,"Native":null,"Site_Notes":null,"Ordinance":null,"County_Rec":null,"Plaque_adjustment_date":1533859200000,"Plaque_notes":null,"Tree_fact_short":null,"Tree_fact_long":null,"Species_fact_short":null,"Species_fact_long":null,"Owner_name":null,"Owner_address":null,"GlobalID":"{EE76E0EA-BCD9-4694-9D4A-83BF6A940C59}","created_user":null,"created_date":null,"last_edited_user":null,"last_edited_date":null}}]}